CZ-2C R/B               
1 54039U 22132E   26036.94851469  .00046646  00000+0  59184-3 0  9999
2 54039  97.2959  39.3746 0017798 200.4319 159.6228 15.59113049185428
GSLV R/B                
1 54149U 22138AN  26036.89486009  .00004785  00000+0  41715-3 0  9994
2 54149  87.3863 177.0016 0019306 266.8043  93.0979 14.96529532179178
XRISM                   
1 57800U 23137A   26036.54218960  .00009716  00000+0  55989-3 0  9999
2 57800  31.0019 131.5250 0007999  77.5176 282.6357 15.11094649132920
ACS3                    
1 59588U 24077B   26037.30461528  .00024506  00000+0  20265-1 0  9994
2 59588  97.2244 345.4715 0045433 175.8701 184.2846 13.88312200 89842
SZ-21 MODULE            
1 66515U 25246C   26037.02230367  .00042468  00000+0  40204-3 0  9999
2 66515  41.4762  37.9361 0003044 278.5646  81.4850 15.66161785 13104
